{
  "links" : {
    "next" : "https://api.nasa.gov/neo/rest/v1/feed?start_date=2014-07-16&end_date=2014-07-16&detailed=true&api_key=t0TVs3DtDT2H8Oy2Zy8m2eVrNsAVKAexjcZXUckd",
    "prev" : "https://api.nasa.gov/neo/rest/v1/feed?start_date=2014-07-14&end_date=2014-07-14&detailed=true&api_key=t0TVs3DtDT2H8Oy2Zy8m2eVrNsAVKAexjcZXUckd",
    "self" : "https://api.nasa.gov/neo/rest/v1/feed?start_date=2014-07-15&end_date=2014-07-15&detailed=true&api_key=t0TVs3DtDT2H8Oy2Zy8m2eVrNsAVKAexjcZXUckd"
  },
  "element_count" : 5,
  "near_earth_objects" : {
    "2014-07-15" : [ {
      "links" : {
        "self" : "https://api.nasa.gov/neo/rest/v1/neo/3680281?api_key=t0TVs3DtDT2H8Oy2Zy8m2eVrNsAVKAexjcZXUckd"
      },
      "neo_reference_id" : "3680281",
      "name" : "(2014 OY391)",
      "nasa_jpl_url" : "http://ssd.jpl.nasa.gov/sbdb.cgi?sstr=3680281",
      "absolute_magnitude_h" : 25.967,
      "estimated_diameter" : {
        "kilometers" : {
          "estimated_diameter_min" : 0.0170276603,
          "estimated_diameter_max" : 0.0380750059
        },
        "meters" : {
          "estimated_diameter_min" : 17.0276602664,
          "estimated_diameter_max" : 38.0750058535
        },
        "miles" : {
          "estimated_diameter_min" : 0.0105804943,
          "estimated_diameter_max" : 0.0236587045
        },
        "feet" : {
          "estimated_diameter_min" : 55.8650289085,
          "estimated_diameter_max" : 124.9180022044
        }
      },
      "is_potentially_hazardous_asteroid" : false,
      "close_approach_data" : [ {
        "close_approach_date" : "2014-07-15",
        "epoch_date_close_approach" : 1405407600000,
        "relative_velocity" : {
          "kilometers_per_second" : "13.8853850996",
          "kilometers_per_hour" : "49987.3863586979",
          "miles_per_hour" : "31060.2179293809"
        },
        "miss_distance" : {
          "astronomical" : "0.0109761103",
          "lunar" : "4.2697072029",
          "kilometers" : "1642002.75",
          "miles" : "1020293.25"
        },
        "orbiting_body" : "Earth"
      } ],
      "orbital_data" : {
        "orbit_id" : "3",
        "orbit_determination_date" : "2017-04-06 08:39:23",
        "orbit_uncertainty" : "9",
        "minimum_orbit_intersection" : ".00310785",
        "jupiter_tisserand_invariant" : "3.425",
        "epoch_osculation" : "2456864.5",
        "eccentricity" : ".6068140482152102",
        "semi_major_axis" : "2.169104789722347",
        "inclination" : ".5873542131982021",
        "ascending_node_longitude" : "347.0926829566232",
        "orbital_period" : "1166.861274653891",
        "perihelion_distance" : ".8528615312679273",
        "perihelion_argument" : "249.8025973966412",
        "aphelion_distance" : "3.485348048176767",
        "perihelion_time" : "2456814.373238717294",
        "mean_anomaly" : "15.46510665299675",
        "mean_motion" : ".3085199653290247",
        "equinox" : "J2000"
      }
    }, {
      "links" : {
        "self" : "https://api.nasa.gov/neo/rest/v1/neo/3514799?api_key=t0TVs3DtDT2H8Oy2Zy8m2eVrNsAVKAexjcZXUckd"
      },
      "neo_reference_id" : "3514799",
      "name" : "(2010 FH81)",
      "nasa_jpl_url" : "http://ssd.jpl.nasa.gov/sbdb.cgi?sstr=3514799",
      "absolute_magnitude_h" : 21.6,
      "estimated_diameter" : {
        "kilometers" : {
          "estimated_diameter_min" : 0.1272198785,
          "estimated_diameter_max" : 0.2844722965
        },
        "meters" : {
          "estimated_diameter_min" : 127.2198785394,
          "estimated_diameter_max" : 284.4722965033
        },
        "miles" : {
          "estimated_diameter_min" : 0.0790507431,
          "estimated_diameter_max" : 0.1767628354
        },
        "feet" : {
          "estimated_diameter_min" : 417.3880663071,
          "estimated_diameter_max" : 933.3080892598
        }
      },
      "is_potentially_hazardous_asteroid" : true,
      "close_approach_data" : [ {
        "close_approach_date" : "2014-07-15",
        "epoch_date_close_approach" : 1405407600000,
        "relative_velocity" : {
          "kilometers_per_second" : "14.6184292409",
          "kilometers_per_hour" : "52626.3452672123",
          "miles_per_hour" : "32699.964368952"
        },
        "miss_distance" : {
          "astronomical" : "0.2900218801",
          "lunar" : "112.8185043335",
          "kilometers" : "43386656",
          "miles" : "26959216"
        },
        "orbiting_body" : "Earth"
      } ],
      "orbital_data" : {
        "orbit_id" : "25",
        "orbit_determination_date" : "2017-04-06 08:57:58",
        "orbit_uncertainty" : "1",
        "minimum_orbit_intersection" : ".034798",
        "jupiter_tisserand_invariant" : "5.154",
        "epoch_osculation" : "2458000.5",
        "eccentricity" : ".2104479432284866",
        "semi_major_axis" : "1.225614736618327",
        "inclination" : "16.79338165999116",
        "ascending_node_longitude" : "84.62930679460825",
        "orbital_period" : "495.597820944911",
        "perihelion_distance" : ".9676866361064762",
        "perihelion_argument" : "158.2635960713293",
        "aphelion_distance" : "1.483542837130177",
        "perihelion_time" : "2457814.455148689195",
        "mean_anomaly" : "135.1421326756292",
        "mean_motion" : ".7263954456329549",
        "equinox" : "J2000"
      }
    }, {
      "links" : {
        "self" : "https://api.nasa.gov/neo/rest/v1/neo/3532366?api_key=t0TVs3DtDT2H8Oy2Zy8m2eVrNsAVKAexjcZXUckd"
      },
      "neo_reference_id" : "3532366",
      "name" : "(2010 MJ1)",
      "nasa_jpl_url" : "http://ssd.jpl.nasa.gov/sbdb.cgi?sstr=3532366",
      "absolute_magnitude_h" : 23.6,
      "estimated_diameter" : {
        "kilometers" : {
          "estimated_diameter_min" : 0.0506471459,
          "estimated_diameter_max" : 0.1132504611
        },
        "meters" : {
          "estimated_diameter_min" : 50.6471458835,
          "estimated_diameter_max" : 113.2504610618
        },
        "miles" : {
          "estimated_diameter_min" : 0.0314706677,
          "estimated_diameter_max" : 0.0703705522
        },
        "feet" : {
          "estimated_diameter_min" : 166.1651821003,
          "estimated_diameter_max" : 371.5566426699
        }
      },
      "is_potentially_hazardous_asteroid" : false,
      "close_approach_data" : [ {
        "close_approach_date" : "2014-07-15",
        "epoch_date_close_approach" : 1405407600000,
        "relative_velocity" : {
          "kilometers_per_second" : "12.0629197281",
          "kilometers_per_hour" : "43426.5110213206",
          "miles_per_hour" : "26983.5451398867"
        },
        "miss_distance" : {
          "astronomical" : "0.2474556322",
          "lunar" : "96.2602386475",
          "kilometers" : "37018836",
          "miles" : "23002438"
        },
        "orbiting_body" : "Earth"
      } ],
      "orbital_data" : {
        "orbit_id" : "9",
        "orbit_determination_date" : "2017-04-06 08:57:13",
        "orbit_uncertainty" : "6",
        "minimum_orbit_intersection" : ".095708",
        "jupiter_tisserand_invariant" : "6.065",
        "epoch_osculation" : "2458000.5",
        "eccentricity" : ".1322913666879912",
        "semi_major_axis" : ".9925687472519312",
        "inclination" : "18.2613376050451",
        "ascending_node_longitude" : "98.25575784832722",
        "orbital_period" : "361.1929972657614",
        "perihelion_distance" : ".8612604711461859",
        "perihelion_argument" : "340.0903210050301",
        "aphelion_distance" : "1.123877023357676",
        "perihelion_time" : "2458060.329731117970",
        "mean_anomaly" : "300.3678826402574",
        "mean_motion" : ".9966970642432371",
        "equinox" : "J2000"
      }
    } ]
  }
}